TEVEL2-9                
1 63237U 25052AD  26068.70229538  .00018694  00000+0  67240-3 0  9992
2 63237  97.4057 324.3929 0007990 124.2475 235.9522 15.28633834 54816
STARLINK-36454          
1 67470U 26008AB  26068.42370959  .00028167  00000+0  10285-2 0  9992
2 67470  43.0057 206.5280 0005220 293.9378  66.0927 15.27592972  9534
